#aV2010 12 29  0  0   .00000000      96 DD+AD WGS84 FIT  NGA
## 1616 259200.00000000   900.00000000 55559  .0000000000000
+   32     1  2  3  4  5  6  7  8  9 10 11 12 13 14 15 16 17
+         18 19 20 21 22 23 24 25 26 27 28 29 30 31 32  0  0
+          0  0  0  0  0  0  0  0  0  0  0  0  0  0  0  0  0
+          0  0  0  0  0  0  0  0  0  0  0  0  0  0  0  0  0
+          0  0  0  0  0  0  0  0  0  0  0  0  0  0  0  0  0
++         0  0  0  0  0  0  0  0  0  0  0  0  0  0  0  0  0
++         0  0  0  0  0  0  0  0  0  0  0  0  0  0  0  0  0
++         0  0  0  0  0  0  0  0  0  0  0  0  0  0  0  0  0
++         0  0  0  0  0  0  0  0  0  0  0  0  0  0  0  0  0
++         0  0  0  0  0  0  0  0  0  0  0  0  0  0  0  0  0
%c cc cc ccc ccc cccc cccc cccc cccc ccccc ccccc ccccc ccccc
%c cc cc ccc ccc cccc cccc cccc cccc ccccc ccccc ccccc ccccc
%f  0.0000000  0.000000000  0.00000000000  0.000000000000000
%f  0.0000000  0.000000000  0.00000000000  0.000000000000000
%i    0    0    0    0      0      0      0      0         0
%i    0    0    0    0      0      0      0      0         0
/*      NGA, ST. LOUIS,MO.                                  
/*   EPHEMERIS COMPUTED FROM  3 DAYS OF DATA                
/* CCCCCCCCCCCCCCCCCCCCCCCCCCCCCCCCCCCCCCCCCCCCCCCCCCCCCCCCC
/* CCCCCCCCCCCCCCCCCCCCCCCCCCCCCCCCCCCCCCCCCCCCCCCCCCCCCCCCC
*  2010 12 29 11 30   .00000000                                                 
P  1  18125.080274   7927.855842 -17894.504517   -195.486926                    
V  1 -21315.285456   7134.736566 -18419.053137      -.033036                    
P  2 -14749.053119  -5538.878020 -21391.939082    311.544267                    
V  2   6712.417805 -26409.883410   1735.602908       .022711                    
P  3  22973.932719   7609.578391  10898.160334    655.255414                    
V  3   9391.730123  11357.619984 -26417.266026       .052228                    
P  4  -9994.241218 -15894.265073 -18852.479905    257.294813                    
V  4   8022.569489 -22398.296316  15147.094365       .098469                    
P  5 -25439.529932   1131.065189  -7749.768736    -90.446351                    
V  5   8770.946882  -5129.427994 -29502.164927      -.059550                    
P  6  22386.574447  11839.830009   8483.032102    380.593515                    
V  6   5701.507030   9404.306023 -28524.708907      -.073976                    
P  7   5356.204124 -25774.729970   2577.897418      1.014617                    
V  7   3362.030621  -2469.327996 -31940.543678       .005410                    
P  8  -1310.742704 -22509.613889  13592.115730      7.117012                    
V  8   7501.081165 -15786.840223 -25980.518470       .001236                    
P  9 -14051.930085  16883.030545  14380.267418     51.904417                    
V  9   2864.485888 -19041.699064  24262.963805       .024130                    
P 10 -16622.295679  -9693.169646 -18662.813609    -61.729880                    
V 10  22220.709593  -6750.820449 -16097.005604      -.010485                    
P 11  11785.261828 -18796.844969  14037.853366   -115.055389                    
V 11   3664.374918  18802.697555  21984.746360      -.029779                    
P 12 -22915.576825  10947.440812  -7456.621296    -40.544039                    
V 12  -9841.757520    -18.960724  30225.457541       .033883                    
P 13    302.669662 -18743.277789 -18931.551537    287.608427                    
V 13  16111.631849  17407.947161 -17142.803438      -.011787                    
P 14  14666.360773  21639.648872   5243.816910    119.521631                    
V 14  -5676.431807  -3530.541757  31266.688324       .030522                    
P 15 -15523.472734   5634.664297  20849.137490   -166.834697                    
V 15 -18435.841572 -18959.402952  -8456.449214       .040306                    
P 16  24011.443874   2380.647996 -11386.674596   -138.341504                    
V 16 -13603.283310   5023.761880 -27280.052842      -.031045                    
P 17 -13784.555401 -21778.834114   7001.136108    180.675119                    
V 17   7751.986258   4628.308355  29936.927660       .007283                    
P 18  -3117.933933  16544.321181  20769.453951    112.960389                    
V 18 -25397.137646   5086.807517  -8350.571693       .021199                    
P 19  17791.014009   -509.813770  19817.394213    -96.489633                    
V 19  15377.122194  19825.080976 -12971.922484      -.035055                    
P 20  19731.552561 -14233.186081 -10719.190400     48.922388                    
V 20  13814.804543   -873.593242  27017.559709      -.001139                    
P 21  -3856.962995  25624.857613   4391.844717   -112.824049                    
V 21  -5429.280716   3921.648461 -30816.977522      -.027375                    
P 22   9836.969300  13521.189456  20819.706566    156.095729                    
V 22 -25236.815238   6895.106702   7413.363858      -.008780                    
P 23  10494.345523 -10860.837890 -21844.071194    335.349664                    
V 23  19483.884915  19723.726682   -772.472935      -.022042                    
P 24  15246.628676 -17684.965032  12472.882479    352.008751                    
V 24  -2303.996698  15945.674556  25809.558287       .032677                    
P 25 -11353.192570  16083.408591 -17846.300592    -60.631751                    
V 25 -22215.851262   4567.902560  18260.951317      -.021859                    
P 26 -20226.049521  -8946.824961  14439.889814    -83.477864                    
V 26 -11447.815123 -15382.414099 -24193.169921      -.088557                    
P 27 -15648.685301   9933.165813  19604.025615    221.664843                    
V 27   4029.735890 -23168.411377  15750.206615       .037210                    
P 28  -5905.740206 -14167.799137  22199.008358     11.793271                    
V 28  26259.958359  -5946.160463   2991.251010       .020104                    
P 29  -2102.978485  17804.915268 -19529.664860    174.131105                    
V 29 -17859.980635 -17473.417170 -13914.438366       .028116                    
P 30  15446.978230   9708.153121 -19752.719542    308.915330                    
V 30 -22712.245321   8274.847937 -13987.287361       .031821                    
P 31  10056.264802  13949.285485 -19968.782255     23.794859                    
V 31  -7975.808167  24606.313648  13220.195350       .041077                    
P 32  25202.836039  -6762.754794  -3332.733096   -163.593317                    
V 32   5147.343710   2434.860683  31545.212964      -.082067                    
EOF
